IRIDIUM 119             
1 42959U 17061E   25062.88688384  .00000835  00000+0  29093-3 0  9993
2 42959  86.3975 221.7278 0002322  93.2467 266.8995 14.34216859387408
IRIDIUM 107             
1 42960U 17061F   25062.90591083  .00000490  00000+0  16802-3 0  9998
2 42960  86.3972 221.7385 0002464  84.3617 275.7860 14.34216445387424
IRIDIUM 132             
1 42961U 17061G   25062.98201545  .00000506  00000+0  17344-3 0  9998
2 42961  86.3973 221.6894 0002094  89.3218 270.8218 14.34220658387425
IRIDIUM 136             
1 42962U 17061H   25062.87419815  .00000458  00000+0  15637-3 0  9997
2 42962  86.3973 221.7389 0002465  90.1564 269.9914 14.34215085387422
IRIDIUM 139             
1 42963U 17061J   25062.88053367  .00000552  00000+0  19008-3 0  9996
2 42963  86.3975 221.7905 0002274  85.6681 274.4775 14.34222052387435
IRIDIUM 125             
1 42964U 17061K   25062.93762252  .00000565  00000+0  19480-3 0  9991
2 42964  86.3976 221.8192 0002722  95.6132 264.5375 14.34214960387453
IRIDIUM 135             
1 43070U 17083A   25062.70244481  .00000084  00000+0  23108-4 0  9997
2 43070  86.4037 158.6885 0001958 100.5350 259.6066 14.34215133376717
IRIDIUM 138             
1 43071U 17083B   25062.79758557  .00000150  00000+0  46370-4 0  9991
2 43071  86.4024 158.3338 0002586 107.7141 252.4337 14.34217032376711
